NORAD_CAT_ID,OBJECT_NAME,OBJECT_TYPE,EPOCH,MEAN_MOTION,ECCENTRICITY,INCLINATION,RA_OF_ASC_NODE,ARG_OF_PERICENTER,MEAN_ANOMALY,BSTAR,MEAN_MOTION_DOT,MEAN_MOTION_DDOT,TLE_LINE0,TLE_LINE1,TLE_LINE2,SEMIMAJOR_AXIS,PERIOD,APOGEE,PERIGEE,DECAYED
55629.0,STARLINK-5497,PAYLOAD,2023-02-22 16:00:00,15.94423613,0.0038036,70.0,136.7864,163.3276,234.2749,-0.0026963,-0.01091072,0.00036386,0 STARLINK-5497,1 55629U 23021A   23053.66667824 -.01091072  36386-3 -26963-2 0  9992,2 55629  70.0000 136.7864 0038036 163.3276 234.2749 15.94423613  1302,6668.058,90.315,315.286,264.56,0.0
55629.0,STARLINK-5497,PAYLOAD,2023-02-22 22:00:00,15.9392447,0.0034596,69.9996,136.0577,163.4494,228.4294,-0.0029451,-0.01144871,0.00039563,0 STARLINK-5497,1 55629U 23021B   23053.91667824 -.01144871  39563-3 -29451-2 0  9991,2 55629  69.9996 136.0577 0034596 163.4494 228.4294 15.93924470  1303,6669.45,90.343,314.389,268.241,0.0
55629.0,STARLINK-5497,PAYLOAD,2023-02-23 08:00:01,15.93019214,0.003004,69.9999,134.8449,165.236,96.0768,-0.0030355,-0.01108188,0.00036914,0 STARLINK-5497,1 55629U 23021B   23054.33334491 -.01108188  36914-3 -30355-2 0  9992,2 55629  69.9999 134.8449 0030040 165.2360  96.0768 15.93019214  1409,6671.976,90.394,313.884,273.799,0.0
55629.0,STARLINK-5497,PAYLOAD,2023-02-23 14:00:01,15.92490125,0.002776,69.9999,134.1177,166.0986,88.2323,-0.0031444,-0.01109124,0.00036775,0 STARLINK-5497,1 55629U 23021B   23054.58334491 -.01109124  36775-3 -31444-2 0  9995,2 55629  69.9999 134.1177 0027760 166.0986  88.2323 15.92490125  1300,6673.454,90.424,313.845,276.794,0.0
55629.0,STARLINK-5497,PAYLOAD,2023-02-23 16:00:00,15.92309558,0.0026892,70.0002,133.8757,166.8614,205.0386,-0.0031656,-0.01103576,0.0003637,0 STARLINK-5497,1 55629U 23021B   23054.66667824 -.01103576  36370-3 -31656-2 0  9994,2 55629  70.0002 133.8757 0026892 166.8614 205.0386 15.92309558  1452,6673.959,90.435,313.771,277.876,0.0
55629.0,STARLINK-5497,PAYLOAD,2023-02-23 22:00:00,15.91821984,0.0024018,69.9996,133.1493,167.9308,196.3331,-0.0034885,-0.01176642,0.00040741,0 STARLINK-5497,1 55629U 23021B   23054.91667824 -.01176642  40741-3 -34885-2 0  9990,2 55629  69.9996 133.1493 0024018 167.9308 196.3331 15.91821984  1308,6675.321,90.462,313.219,281.154,0.0
55629.0,STARLINK-5497,PAYLOAD,2023-02-24 02:00:01,15.91414141,0.0022896,69.9999,132.6656,169.016,69.9292,-0.0032771,-0.0108029,0.00034654,0 STARLINK-5497,1 55629U 23021B   23055.08334491 -.01080290  34654-3 -32771-2 0  9991,2 55629  69.9999 132.6656 0022896 169.0160  69.9292 15.91414141  1525,6676.462,90.486,313.613,283.04,0.0
55629.0,STARLINK-5497,PAYLOAD,2023-02-24 08:00:01,15.90888968,0.0020141,70.0002,131.9403,171.8432,58.6882,-0.003411,-0.0108831,0.00034949,0 STARLINK-5497,1 55629U 23021B   23055.33334491 -.01088310  34949-3 -34110-2 0  9996,2 55629  70.0002 131.9403 0020141 171.8432  58.6882 15.90888968  1564,6677.931,90.515,313.246,286.346,0.0
55629.0,STARLINK-5497,PAYLOAD,2023-02-24 14:00:01,15.9036555,0.0017789,70.0,131.2156,174.7428,46.8972,-0.0035513,-0.01098554,0.00035377,0 STARLINK-5497,1 55629U 23021B   23055.58334491 -.01098554  35377-3 -35513-2 0  9998,2 55629  70.0000 131.2156 0017789 174.7428  46.8972 15.90365550  1309,6679.396,90.545,313.143,289.379,0.0
55629.0,STARLINK-5497,PAYLOAD,2023-02-24 18:00:00,15.89998346,0.0016393,69.9997,130.7332,177.5367,277.9193,-0.0035459,-0.0107447,0.00033835,0 STARLINK-5497,1 55629U 23021B   23055.75001157 -.01074470  33835-3 -35459-2 0  9994,2 55629  69.9997 130.7332 0016393 177.5367 277.9193 15.89998346  1635,6680.424,90.566,313.241,291.338,0.0
55629.0,STARLINK-5497,PAYLOAD,2023-02-24 22:00:00,15.8968985,0.0014574,69.9997,130.2501,181.0153,148.0208,-0.0038985,-0.01159351,0.00038822,0 STARLINK-5497,1 55629U 23021B   23055.91667824 -.01159351  38822-3 -38985-2 0  9991,2 55629  69.9997 130.2501 0014574 181.0153 148.0208 15.89689850  1306,6681.289,90.584,312.891,293.416,0.0
55629.0,STARLINK-5497,PAYLOAD,2023-02-25 02:00:01,15.89287746,0.0013453,70.0001,129.7681,184.3809,18.0605,-0.0036629,-0.01066702,0.00033155,0 STARLINK-5497,1 55629U 23021B   23056.08334491 -.01066702  33155-3 -36629-2 0  9995,2 55629  70.0001 129.7681 0013453 184.3809  18.0605 15.89287746  1682,6682.416,90.607,313.27,295.291,0.0
55629.0,STARLINK-5497,PAYLOAD,2023-02-25 08:00:01,15.8875788,0.0011446,69.9999,129.045,192.1982,359.9253,-0.0037732,-0.01067713,0.00033043,0 STARLINK-5497,1 55629U 23021B   23056.33334491 -.01067713  33043-3 -37732-2 0  9998,2 55629  69.9999 129.0450 0011446 192.1982 359.9253 15.88757880  1722,6683.901,90.637,313.417,298.116,0.0
55629.0,STARLINK-5497,PAYLOAD,2023-02-25 14:00:01,15.88239773,0.0009952,69.9998,128.3228,202.5139,338.8082,-0.0039422,-0.01085523,0.00033901,0 STARLINK-5497,1 55629U 23021B   23056.58334491 -.01085523  33901-3 -39422-2 0  9995,2 55629  69.9998 128.3228 0009952 202.5139 338.8082 15.88239773  1761,6685.355,90.666,313.873,300.567,0.0
55629.0,STARLINK-5497,PAYLOAD,2023-02-25 22:00:00,15.87554261,0.0008599,69.9995,127.36,219.2173,66.964,-0.0042594,-0.01017419,0.0,0 STARLINK-5497,1 55629U 23021B   23056.91667824 -.01017419  00000-0 -42594-2 0  9995,2 55629  69.9995 127.3600 0008599 219.2173  66.9640 15.87554261  1816,6687.279,90.706,314.895,303.394,0.0
55629.0,STARLINK-5497,PAYLOAD,2023-02-26 06:00:00,15.86862854,0.000856,69.9994,126.3987,242.2962,147.895,-0.0045,-0.0103636,0.0,0 STARLINK-5497,1 55629U 23021B   23057.25001157 -.01036360  00000-0 -45000-2 0  9995,2 55629  69.9994 126.3987 0008560 242.2962 147.8950 15.86862854  1869,6689.222,90.745,316.812,305.361,0.0
55629.0,STARLINK-5497,PAYLOAD,2023-02-26 14:00:01,15.86119964,0.0009101,69.9997,125.4385,259.3009,234.0753,-0.0043891,-0.00981254,0.0,0 STARLINK-5497,1 55629U 23021B   23057.58334491 -.00981254  00000-0 -43891-2 0  9997,2 55629  69.9997 125.4385 0009101 259.3009 234.0753 15.86119964  1303,6691.31,90.788,319.265,307.085,0.0
55629.0,STARLINK-5497,PAYLOAD,2023-02-26 22:00:00,15.85407799,0.000849,69.9996,124.4788,268.7882,326.9143,-0.0045154,-0.00975017,0.0,0 STARLINK-5497,1 55629U 23021B   23057.91667824 -.00975017  00000-0 -45154-2 0  9997,2 55629  69.9996 124.4788 0008490 268.7882 326.9143 15.85407799  1973,6693.314,90.828,320.861,309.496,0.0
55629.0,STARLINK-5497,PAYLOAD,2023-02-27 14:00:01,15.84027205,0.0005295,70.0001,122.5636,275.4942,162.2969,-0.0050923,-0.01020226,0.0,0 STARLINK-5497,1 55629U 23021B   23058.58334491 -.01020226  00000-0 -50923-2 0  9996,2 55629  70.0001 122.5636 0005295 275.4942 162.2969 15.84027205  1309,6697.202,90.908,322.613,315.521,0.0
55629.0,STARLINK-5497,PAYLOAD,2023-02-27 22:00:01,15.83250088,0.0003455,70.0004,121.6068,279.142,258.5264,-0.0047165,-0.00920041,0.0,0 STARLINK-5497,1 55629U 23021B   23058.91668981 -.00920041  00000-0 -47165-2 0  9994,2 55629  70.0004 121.6068 0003455 279.1420 258.5264 15.83250088  2134,6699.394,90.952,323.573,318.944,0.0
55629.0,STARLINK-5497,PAYLOAD,2023-02-28 14:00:01,15.81886057,0.0003695,69.9998,119.697,271.1976,103.4013,-0.0054423,-0.00987789,0.0,0 STARLINK-5497,1 55629U 23021B   23059.58334491 -.00987789  00000-0 -54423-2 0  9991,2 55629  69.9998 119.6970 0003695 271.1976 103.4013 15.81886057  1303,6703.244,91.031,327.586,322.632,0.0
55629.0,STARLINK-5497,PAYLOAD,2023-02-28 16:00:00,15.81699274,0.0003501,70.0,119.4591,271.7836,217.2087,-0.0054039,-0.00973778,0.0,0 STARLINK-5497,1 55629U 23021B   23059.66667824 -.00973778  00000-0 -54039-2 0  9995,2 55629  70.0000 119.4591 0003501 271.7836 217.2087 15.81699274  2257,6703.772,91.041,327.984,323.29,0.0
55629.0,STARLINK-5497,PAYLOAD,2023-02-28 22:00:00,15.81201248,0.000371,70.0001,118.744,280.4911,191.3356,-0.0058049,-0.01016929,0.0,0 STARLINK-5497,1 55629U 23021B   23059.91667824 -.01016929  00000-0 -58049-2 0  9995,2 55629  70.0001 118.7440 0003710 280.4911 191.3356 15.81201248  1302,6705.18,91.07,329.532,324.557,0.0
55629.0,STARLINK-5497,PAYLOAD,2023-03-01 14:00:01,15.7978258,0.000353,69.9997,116.8401,269.6418,34.1206,-0.006142,-0.0100862,0.0,0 STARLINK-5497,1 55629U 23021B   23060.58334491 -.01008620  00000-0 -61420-2 0  9997,2 55629  69.9997 116.8401 0003530 269.6418  34.1206 15.79782580  2398,6709.193,91.152,333.426,328.69,0.0
55629.0,STARLINK-5497,PAYLOAD,2023-03-01 22:00:00,15.79063061,0.0003707,69.9996,115.8891,279.5665,118.8983,-0.0062304,-0.00992125,0.0,0 STARLINK-5497,1 55629U 23021B   23060.91667824 -.00992125  00000-0 -62304-2 0  9996,2 55629  69.9996 115.8891 0003707 279.5665 118.8983 15.79063061  1307,6711.231,91.193,335.584,330.608,0.0
55629.0,STARLINK-5497,PAYLOAD,2023-03-02 20:00:01,15.77109092,0.0003431,69.9999,113.2811,272.3614,292.1514,-0.0066957,-0.00977808,0.0,0 STARLINK-5497,1 55629U 23021B   23061.83334491 -.00977808  00000-0 -66957-2 0  9998,2 55629  69.9999 113.2811 0003431 272.3614 292.1514 15.77109092  1302,6716.773,91.306,340.943,336.334,0.0
55629.0,STARLINK-5497,PAYLOAD,2023-03-03 12:00:00,15.75693583,0.0003709,70.0002,111.3889,281.8503,104.8504,-0.0070919,-0.0097332,0.0,0 STARLINK-5497,1 55629U 23021B   23062.50001157 -.00973320  00000-0 -70919-2 0  9991,2 55629  70.0002 111.3889 0003709 281.8503 104.8504 15.75693583  2708,6720.795,91.388,345.153,340.167,0.0
55629.0,STARLINK-5497,PAYLOAD,2023-03-03 14:00:01,15.75507113,0.0003492,70.0001,111.1528,274.296,224.9433,-0.0070243,-0.00957839,0.0,0 STARLINK-5497,1 55629U 23021B   23062.58334491 -.00957839  00000-0 -70243-2 0  9996,2 55629  70.0001 111.1528 0003492 274.2960 224.9433 15.75507113  1300,6721.326,91.399,345.538,340.843,0.0
55629.0,STARLINK-5497,PAYLOAD,2023-03-03 22:00:00,15.7484491,0.0003604,69.9997,110.2071,282.5448,306.2861,-0.0077539,-0.01036692,0.0,0 STARLINK-5497,1 55629U 23021B   23062.91667824 -.01036692  00000-0 -77539-2 0  9993,2 55629  69.9997 110.2071 0003604 282.5448 306.2861 15.74844910  1309,6723.21,91.438,347.498,342.651,0.0
